{
  "type": "FeatureCollection",
  "features": [
    {
      "type": "Feature",
      "properties": {
        "norad_id": 66857,
        "name": "STARLINK-36083",
        "group": "last-30-days",
        "lat": -0.202692910217417,
        "lon": 61.34098711155313,
        "alt_km": 372.13862848036297,
        "timestamp": "2025-12-22T16:55:16.168053+00:00",
        "meta_object_name": "STARLINK-36083",
        "meta_object_id": "2025-281K",
        "meta_epoch": "2025-12-22T06:00:02.000160",
        "meta_mean_motion": 15.67245462,
        "meta_eccentricity": 0.00012469,
        "meta_inclination": 43.0003,
        "meta_ra_of_asc_node": 64.2838,
        "meta_arg_of_pericenter": 267.1774,
        "meta_mean_anomaly": 43.8184,
        "meta_ephemeris_type": 0,
        "meta_classification_type": "U",
        "meta_norad_cat_id": 66857,
        "meta_element_set_no": 999,
        "meta_rev_at_epoch": 292,
        "meta_bstar": -0.020344125,
        "meta_mean_motion_dot": -0.01983148,
        "meta_mean_motion_ddot": 0,
        "tle_line1": "1 66857U 25281K   25356.25002315 -.01983148  00000+0 -20344-1 0  9998",
        "tle_line2": "2 66857  43.0003  64.2838 0001246 267.1774  43.8184 15.67245462  2925"
      },
      "geometry": {
        "type": "Point",
        "coordinates": [
          61.34098711155313,
          -0.202692910217417
        ]
      }
    },
    {
      "type": "Feature",
      "properties": {
        "norad_id": 66858,
        "name": "STARLINK-35118",
        "group": "last-30-days",
        "lat": 1.1047197367171175,
        "lon": 62.739150747242775,
        "alt_km": 372.0476577125846,
        "timestamp": "2025-12-22T16:55:16.168065+00:00",
        "meta_object_name": "STARLINK-35118",
        "meta_object_id": "2025-281L",
        "meta_epoch": "2025-12-22T06:00:02.000160",
        "meta_mean_motion": 15.67247867,
        "meta_eccentricity": 0.00012751,
        "meta_inclination": 43.0002,
        "meta_ra_of_asc_node": 64.2787,
        "meta_arg_of_pericenter": 265.6505,
        "meta_mean_anomaly": 47.2626,
        "meta_ephemeris_type": 0,
        "meta_classification_type": "U",
        "meta_norad_cat_id": 66858,
        "meta_element_set_no": 999,
        "meta_rev_at_epoch": 270,
        "meta_bstar": -0.020392875,
        "meta_mean_motion_dot": -0.01987524,
        "meta_mean_motion_ddot": 0,
        "tle_line1": "1 66858U 25281L   25356.25002315 -.01987524  00000+0 -20393-1 0  9995",
        "tle_line2": "2 66858  43.0002  64.2787 0001275 265.6505  47.2626 15.67247867  2701"
      },
      "geometry": {
        "type": "Point",
        "coordinates": [
          62.739150747242775,
          1.1047197367171175
        ]
      }
    },
    {
      "type": "Feature",
      "properties": {
        "norad_id": 66859,
        "name": "STARLINK-35646",
        "group": "last-30-days",
        "lat": 2.410578521513619,
        "lon": 64.13819802006535,
        "alt_km": 371.8011418258384,
        "timestamp": "2025-12-22T16:55:16.168076+00:00",
        "meta_object_name": "STARLINK-35646",
        "meta_object_id": "2025-281M",
        "meta_epoch": "2025-12-22T06:00:02.000160",
        "meta_mean_motion": 15.672461,
        "meta_eccentricity": 0.0001274,
        "meta_inclination": 43.0001,
        "meta_ra_of_asc_node": 64.2742,
        "meta_arg_of_pericenter": 269.9185,
        "meta_mean_anomaly": 44.9102,
        "meta_ephemeris_type": 0,
        "meta_classification_type": "U",
        "meta_norad_cat_id": 66859,
        "meta_element_set_no": 999,
        "meta_rev_at_epoch": 292,
        "meta_bstar": -0.020349358,
        "meta_mean_motion_dot": -0.01983664,
        "meta_mean_motion_ddot": 0,
        "tle_line1": "1 66859U 25281M   25356.25002315 -.01983664  00000+0 -20349-1 0  9998",
        "tle_line2": "2 66859  43.0001  64.2742 0001274 269.9185  44.9102 15.67246100  2928"
      },
      "geometry": {
        "type": "Point",
        "coordinates": [
          64.13819802006535,
          2.410578521513619
        ]
      }
    },
    {
      "type": "Feature",
      "properties": {
        "norad_id": 66860,
        "name": "STARLINK-35987",
        "group": "last-30-days",
        "lat": 8.906723067926743,
        "lon": 71.20678432520035,
        "alt_km": 371.1302469798202,
        "timestamp": "2025-12-22T16:55:16.168090+00:00",
        "meta_object_name": "STARLINK-35987",
        "meta_object_id": "2025-281N",
        "meta_epoch": "2025-12-22T06:00:02.000160",
        "meta_mean_motion": 15.67245134,
        "meta_eccentricity": 0.00013046,
        "meta_inclination": 43.0003,
        "meta_ra_of_asc_node": 64.2502,
        "meta_arg_of_pericenter": 268.1905,
        "meta_mean_anomaly": 56.2288,
        "meta_ephemeris_type": 0,
        "meta_classification_type": "U",
        "meta_norad_cat_id": 66860,
        "meta_element_set_no": 999,
        "meta_rev_at_epoch": 292,
        "meta_bstar": -0.020383479,
        "meta_mean_motion_dot": -0.01986544,
        "meta_mean_motion_ddot": 0,
        "tle_line1": "1 66860U 25281N   25356.25002315 -.01986544  00000+0 -20383-1 0  9998",
        "tle_line2": "2 66860  43.0003  64.2502 0001304 268.1905  56.2288 15.67245134  2928"
      },
      "geometry": {
        "type": "Point",
        "coordinates": [
          71.20678432520035,
          8.906723067926743
        ]
      }
    },
    {
      "type": "Feature",
      "properties": {
        "norad_id": 66861,
        "name": "STARLINK-35991",
        "group": "last-30-days",
        "lat": 5.02015717461179,
        "lon": 66.94869610614624,
        "alt_km": 371.60023695653945,
        "timestamp": "2025-12-22T16:55:16.168100+00:00",
        "meta_object_name": "STARLINK-35991",
        "meta_object_id": "2025-281P",
        "meta_epoch": "2025-12-22T06:00:02.000160",
        "meta_mean_motion": 15.67246845,
        "meta_eccentricity": 0.00013669,
        "meta_inclination": 43.0002,
        "meta_ra_of_asc_node": 64.2648,
        "meta_arg_of_pericenter": 267.5117,
        "meta_mean_anomaly": 51.1568,
        "meta_ephemeris_type": 0,
        "meta_classification_type": "U",
        "meta_norad_cat_id": 66861,
        "meta_element_set_no": 999,
        "meta_rev_at_epoch": 292,
        "meta_bstar": -0.020418161,
        "meta_mean_motion_dot": -0.01989689,
        "meta_mean_motion_ddot": 0,
        "tle_line1": "1 66861U 25281P   25356.25002315 -.01989689  00000+0 -20418-1 0  9991",
        "tle_line2": "2 66861  43.0002  64.2648 0001366 267.5117  51.1568 15.67246845  2920"
      },
      "geometry": {
        "type": "Point",
        "coordinates": [
          66.94869610614624,
          5.02015717461179
        ]
      }
    },
    {
      "type": "Feature",
      "properties": {
        "norad_id": 66862,
        "name": "STARLINK-35974",
        "group": "last-30-days",
        "lat": 3.7174666970937866,
        "lon": 65.54242552138318,
        "alt_km": 371.769712404609,
        "timestamp": "2025-12-22T16:55:16.168110+00:00",
        "meta_object_name": "STARLINK-35974",
        "meta_object_id": "2025-281Q",
        "meta_epoch": "2025-12-22T06:00:02.000160",
        "meta_mean_motion": 15.67245413,
        "meta_eccentricity": 0.00013863,
        "meta_inclination": 43.0001,
        "meta_ra_of_asc_node": 64.2695,
        "meta_arg_of_pericenter": 266.1212,
        "meta_mean_anomaly": 50.6289,
        "meta_ephemeris_type": 0,
        "meta_classification_type": "U",
        "meta_norad_cat_id": 66862,
        "meta_element_set_no": 999,
        "meta_rev_at_epoch": 282,
        "meta_bstar": -0.020371832,
        "meta_mean_motion_dot": -0.01985629,
        "meta_mean_motion_ddot": 0,
        "tle_line1": "1 66862U 25281Q   25356.25002315 -.01985629  00000+0 -20372-1 0  9991",
        "tle_line2": "2 66862  43.0001  64.2695 0001386 266.1212  50.6289 15.67245413  2828"
      },
      "geometry": {
        "type": "Point",
        "coordinates": [
          65.54242552138318,
          3.7174666970937866
        ]
      }
    },
    {
      "type": "Feature",
      "properties": {
        "norad_id": 66863,
        "name": "STARLINK-36134",
        "group": "last-30-days",
        "lat": 6.318948273516835,
        "lon": 68.35967401315833,
        "alt_km": 371.36940078790576,
        "timestamp": "2025-12-22T16:55:16.168119+00:00",
        "meta_object_name": "STARLINK-36134",
        "meta_object_id": "2025-281R",
        "meta_epoch": "2025-12-22T06:00:02.000160",
        "meta_mean_motion": 15.67243338,
        "meta_eccentricity": 0.00013105,
        "meta_inclination": 43.0002,
        "meta_ra_of_asc_node": 64.2601,
        "meta_arg_of_pericenter": 270.4568,
        "meta_mean_anomaly": 50.128,
        "meta_ephemeris_type": 0,
        "meta_classification_type": "U",
        "meta_norad_cat_id": 66863,
        "meta_element_set_no": 999,
        "meta_rev_at_epoch": 292,
        "meta_bstar": -0.020349626,
        "meta_mean_motion_dot": -0.01983516,
        "meta_mean_motion_ddot": 0,
        "tle_line1": "1 66863U 25281R   25356.25002315 -.01983516  00000+0 -20350-1 0  9991",
        "tle_line2": "2 66863  43.0002  64.2601 0001310 270.4568  50.1280 15.67243338  2927"
      },
      "geometry": {
        "type": "Point",
        "coordinates": [
          68.35967401315833,
          6.318948273516835
        ]
      }
    }
  ]
}